{"features":[{"geometry":{"type":"LineString","coordinates":[[-6.267666699946492,57.74966670015285],[-6.0511666995578945,57.86633330057302]]},"id":1,"type":"Feature","properties":{"fid":1,"cattss":0E-8,"inform":"Recommended routes in the Minches","orient":45,"globalid":"{4849B801-5A76-48BD-9D0D-D8B36E365C1D}","feature_ty":"Recommended Routes","cattrk":0E-8,"trafic":0E-8,"SHAPE__Length":34279.760185808}},{"geometry":{"type":"LineString","coordinates":[[-6.500999999577138,57.899666699842776],[-6.684333300462447,57.782999999947506]]},"id":2,"type":"Feature","properties":{"fid":2,"cattss":0E-8,"inform":"Recommended routes in the Minches","orient":220,"globalid":"{595374A1-1650-4283-BFA5-76AD3AA1ED3D}","feature_ty":"Recommended Routes","cattrk":0E-8,"trafic":0E-8,"SHAPE__Length":31809.911715690196}},{"geometry":{"type":"LineString","coordinates":[[-6.2845000000868705,57.96633330040496],[-6.500999999577138,57.899666699842776]]},"id":3,"type":"Feature","properties":{"fid":3,"cattss":0E-8,"inform":"Recommended routes in the Minches","orient":240,"globalid":"{F26F2140-E8EA-4F03-8301-2A559EFB831C}","feature_ty":"Recommended Routes","cattrk":0E-8,"trafic":0E-8,"SHAPE__Length":27861.060414212527}},{"geometry":{"type":"LineString","coordinates":[[-6.536666700634667,57.67249999977091],[-6.267666699946492,57.74966670015285]]},"id":4,"type":"Feature","properties":{"fid":4,"cattss":0E-8,"inform":"Recommended routes in the Minches","orient":62,"globalid":"{2781F271-A778-44E5-B8B2-4FDE37192981}","feature_ty":"Recommended Routes","cattrk":0E-8,"trafic":0E-8,"SHAPE__Length":33989.56336333057}},{"geometry":{"type":"LineString","coordinates":[[2.0005000006113436,51.68883330020137],[1.84883329984146,51.74883329985974]]},"id":5,"type":"Feature","properties":{"fid":5,"cattss":0E-8,"inform":"Galloper recommended route","orient":302.5,"globalid":"{66171076-6FC2-4864-A731-055504901B78}","feature_ty":"Recommended Routes","cattrk":0E-8,"trafic":0E-8,"SHAPE__Length":20032.10322392996}},{"geometry":{"type":"LineString","coordinates":[[1.635000000476084,51.10216670041863],[1.729000000165552,51.171000000094686],[1.7500000001057376,51.186666699962935],[1.8715000007221336,51.27549999977984],[1.7500000001057376,51.186666699962935],[1.729000000165552,51.171000000094686]]},"id":6,"type":"Feature","properties":{"fid":6,"cattss":0E-8,"inform":"In the Strait of Dover and Adjacent Waters","orient":0E-8,"globalid":"{9454B899-AEC8-4EB4-8ED3-032A40A7974F}","feature_ty":"Traffic Separation Lines","cattrk":0E-8,"trafic":0E-8,"SHAPE__Length":64934.60633558524}},{"geometry":{"type":"LineString","coordinates":[[1.3706667000781965,51.04216669978203],[1.0433001002104472,50.87105089965181]]},"id":7,"type":"Feature","properties":{"fid":7,"cattss":0E-8,"inform":"In the Strait of Dover and Adjacent Waters","orient":0E-8,"globalid":"{30C0A974-D511-43ED-B8EA-6C1C9A582CEB}","feature_ty":"Traffic Separation Lines","cattrk":0E-8,"trafic":0E-8,"SHAPE__Length":47355.12970967698}},{"geometry":{"type":"LineString","coordinates":[[0.11883329959320894,53.5589999994399],[0.16083329947357985,53.545500000067854]]},"id":8,"type":"Feature","properties":{"fid":8,"cattss":0E-8,"inform":"In the Approaches to the River Humber","orient":0E-8,"globalid":"{3857BDFD-B3EB-4301-B9E9-29C1A7FA7E1D}","feature_ty":"Traffic Separation Lines","cattrk":0E-8,"trafic":0E-8,"SHAPE__Length":5315.867960873299}},{"geometry":{"type":"LineString","coordinates":[[0.18583329974456134,53.54450000022041],[0.22000000022887808,53.54700000037613]]},"id":9,"type":"Feature","properties":{"fid":9,"cattss":0E-8,"inform":"In the Approaches to the River Humber","orient":0E-8,"globalid":"{2321FCBB-041D-4EF5-B322-FFA52EC9912B}","feature_ty":"Traffic Separation Lines","cattrk":0E-8,"trafic":0E-8,"SHAPE__Length":3832.1502481699877}},{"geometry":{"type":"LineString","coordinates":[[0.28433330025537384,53.57466669947766],[0.34399999970459283,53.61649999990302],[0.36450000005256056,53.64199999985404]]},"id":10,"type":"Feature","properties":{"fid":10,"cattss":0E-8,"inform":"In the Approaches to the River Humber","orient":0E-8,"globalid":"{CD74DC48-5A99-403F-B958-426B220F9B9C}","feature_ty":"Traffic Separation Lines","cattrk":0E-8,"trafic":0E-8,"SHAPE__Length":15583.447944721464}},{"geometry":{"type":"LineString","coordinates":[[0.290666700587853,53.52066669955927],[0.3464999994621751,53.49816669991754]]},"id":11,"type":"Feature","properties":{"fid":11,"cattss":0E-8,"inform":"In the Approaches to the River Humber","orient":0E-8,"globalid":"{AAE60B98-FAC2-4AA3-A378-A7FC5E3B66C5}","feature_ty":"Traffic Separation Lines","cattrk":0E-8,"trafic":0E-8,"SHAPE__Length":7507.943945806564}},{"geometry":{"type":"LineString","coordinates":[[0.30483329970504464,53.54533330019452],[0.382499999744649,53.54533330019452]]},"id":12,"type":"Feature","properties":{"fid":12,"cattss":0E-8,"inform":"In the Approaches to the River Humber","orient":0E-8,"globalid":"{C821C97C-6589-42C6-AB52-91E12B9BBD56}","feature_ty":"Traffic Separation Lines","cattrk":0E-8,"trafic":0E-8,"SHAPE__Length":8645.8175}},{"geometry":{"type":"LineString","coordinates":[[-3.686833300038769,53.49733329991911],[-3.53499999951292,53.499333300304926]]},"id":13,"type":"Feature","properties":{"fid":13,"cattss":0E-8,"inform":"","orient":0E-8,"globalid":"{02F053A1-707E-460A-B8CE-F6233BDF3B6C}","feature_ty":"Traffic Separation Scheme Boundaries","cattrk":0E-8,"trafic":0E-8,"SHAPE__Length":16906.149242250067}},{"geometry":{"type":"LineString","coordinates":[[-3.537333299801558,53.576000000548966],[-3.689333299796385,53.57399999983703]]},"id":14,"type":"Feature","properties":{"fid":14,"cattss":0E-8,"inform":"","orient":0E-8,"globalid":"{0C1A32A0-0C9C-4408-B8F7-E955A88F7C35}","feature_ty":"Traffic Separation Scheme Boundaries","cattrk":0E-8,"trafic":0E-8,"SHAPE__Length":16924.71661512385}},{"geometry":{"type":"LineString","coordinates":[[2.036166699872246,51.560999999435246],[1.8793332992198906,51.45583330033856],[1.7331666999653255,51.235499999582785],[1.514999999534571,51.11550000033635],[1.3706667000781965,51.04216669978203]]},"id":15,"type":"Feature","properties":{"fid":15,"cattss":0E-8,"inform":"In the Strait of Dover and Adjacent Waters","orient":0E-8,"globalid":"{29EB1E28-8A80-49B5-BA10-2734B3DBEBA3}","feature_ty":"Traffic Separation Scheme Boundaries","cattrk":0E-8,"trafic":0E-8,"SHAPE__Length":121140.77318608062}},{"geometry":{"type":"LineString","coordinates":[[0.11333329958749619,53.552333300274505],[0.1518333005258494,53.53899999994869]]},"id":16,"type":"Feature","properties":{"fid":16,"cattss":0E-8,"inform":"In the Approaches to the River Humber","orient":0E-8,"globalid":"{076C6BAF-9BA9-47BF-9672-FE72ED6E3266}","feature_ty":"Traffic Separation Scheme Boundaries","cattrk":0E-8,"trafic":0E-8,"SHAPE__Length":4960.645572351714}},{"geometry":{"type":"LineString","coordinates":[[0.12383330000673744,53.56533329976257],[0.171166700136855,53.552666700260005]]},"id":17,"type":"Feature","properties":{"fid":17,"cattss":0E-8,"inform":"In the Approaches to the River Humber","orient":0E-8,"globalid":"{CED03A65-03DE-4597-9D0A-C6E0FB649476}","feature_ty":"Traffic Separation Scheme Boundaries","cattrk":0E-8,"trafic":0E-8,"SHAPE__Length":5779.167380580009}},{"geometry":{"type":"LineString","coordinates":[[0.18616669958081297,53.552666700260005],[0.23000000015763802,53.55866670004805]]},"id":18,"type":"Feature","properties":{"fid":18,"cattss":0E-8,"inform":"In the Approaches to the River Humber","orient":0E-8,"globalid":"{F7250817-30A0-4323-8E78-2C20D5BD7D0B}","feature_ty":"Traffic Separation Scheme Boundaries","cattrk":0E-8,"trafic":0E-8,"SHAPE__Length":5007.3659807332815}},{"geometry":{"type":"LineString","coordinates":[[0.1853333001523771,53.53966669988671],[0.21333329977319201,53.540166700600686]]},"id":19,"type":"Feature","properties":{"fid":19,"cattss":0E-8,"inform":"In the Approaches to the River Humber","orient":0E-8,"globalid":"{3443E3B7-19DE-4F06-B798-A07C9DAD2DE9}","feature_ty":"Traffic Separation Scheme Boundaries","cattrk":0E-8,"trafic":0E-8,"SHAPE__Length":3118.3526206945376}},{"geometry":{"type":"LineString","coordinates":[[0.29316669944713825,53.57033330024033],[0.35333329967386073,53.612000000484116],[0.3748333001045275,53.63916669985399]]},"id":20,"type":"Feature","properties":{"fid":20,"cattss":0E-8,"inform":"In the Approaches to the River Humber","orient":0E-8,"globalid":"{625E6618-2293-4FB2-8DD9-222CEA89947A}","feature_ty":"Traffic Separation Scheme Boundaries","cattrk":0E-8,"trafic":0E-8,"SHAPE__Length":15925.148944547802}},{"geometry":{"type":"LineString","coordinates":[[0.27566670024556456,53.57900000023634],[0.3349999998585319,53.62116669986194],[0.3540000005316498,53.644999999319076]]},"id":21,"type":"Feature","properties":{"fid":21,"cattss":0E-8,"inform":"In the Approaches to the River Humber","orient":0E-8,"globalid":"{480536ED-C343-475C-8A83-7445C3C50315}","feature_ty":"Traffic Separation Scheme Boundaries","cattrk":0E-8,"trafic":0E-8,"SHAPE__Length":15254.19210595982}},{"geometry":{"type":"LineString","coordinates":[[0.2768333000842631,53.509833300087955],[0.33275340046955415,53.48656119964678]]},"id":22,"type":"Feature","properties":{"fid":22,"cattss":0E-8,"inform":"In the Approaches to the River Humber","orient":0E-8,"globalid":"{7555B80E-2666-4564-AB3E-7C90CF2410CB}","feature_ty":"Traffic Separation Scheme Boundaries","cattrk":0E-8,"trafic":0E-8,"SHAPE__Length":7597.217458578822}},{"geometry":{"type":"LineString","coordinates":[[0.30483329970504464,53.531666699574856],[0.35950000053736253,53.5093333001826]]},"id":23,"type":"Feature","properties":{"fid":23,"cattss":0E-8,"inform":"In the Approaches to the River Humber","orient":0E-8,"globalid":"{2622855F-3751-4D63-BF2F-3D73F87768A9}","feature_ty":"Traffic Separation Scheme Boundaries","cattrk":0E-8,"trafic":0E-8,"SHAPE__Length":7383.711932549219}},{"geometry":{"type":"LineString","coordinates":[[0.30483329970504464,53.531666699574856],[0.382499999744649,53.531666699574856]]},"id":24,"type":"Feature","properties":{"fid":24,"cattss":0E-8,"inform":"In the Approaches to the River Humber","orient":0E-8,"globalid":"{CF13E3CB-4222-4011-BC52-C051964813C8}","feature_ty":"Traffic Separation Scheme Boundaries","cattrk":0E-8,"trafic":0E-8,"SHAPE__Length":8645.8175}},{"geometry":{"type":"LineString","coordinates":[[0.30483329970504464,53.55950000016462],[0.382499999744649,53.55950000016462]]},"id":25,"type":"Feature","properties":{"fid":25,"cattss":0E-8,"inform":"In the Approaches to the River Humber","orient":0E-8,"globalid":"{086B744F-C0F2-41D7-B1E3-85604A45A256}","feature_ty":"Traffic Separation Scheme Boundaries","cattrk":0E-8,"trafic":0E-8,"SHAPE__Length":8645.8175}},{"geometry":{"type":"LineString","coordinates":[[1.7218333001176485,51.94166670002775],[1.7119999996578656,51.911333300277676]]},"id":26,"type":"Feature","properties":{"fid":26,"cattss":0E-8,"inform":"TSS Sunk North","orient":0E-8,"globalid":"{82A557D1-74D1-49E1-9814-30F7877F038E}","feature_ty":"Traffic Separation Scheme Boundaries","cattrk":0E-8,"trafic":0E-8,"SHAPE__Length":5584.023954631215}},{"geometry":{"type":"LineString","coordinates":[[1.8636667004277827,51.79083330043397],[2.117999999998613,51.864833300143246]]},"id":27,"type":"Feature","properties":{"fid":27,"cattss":0E-8,"inform":"TSS Sunk East","orient":0E-8,"globalid":"{02F09E7B-7437-4802-ACC3-35B1E7CA0BB0}","feature_ty":"Traffic Separation Scheme Boundaries","cattrk":0E-8,"trafic":0E-8,"SHAPE__Length":31292.883845404725}},{"geometry":{"type":"LineString","coordinates":[[1.847166700410611,51.64699999935384],[1.8356666999086373,51.71083330024457]]},"id":28,"type":"Feature","properties":{"fid":28,"cattss":0E-8,"inform":"TSS Sunk South","orient":0E-8,"globalid":"{939A42A6-836C-47AE-AB2D-9737C8E8A066}","feature_ty":"Traffic Separation Scheme Boundaries","cattrk":0E-8,"trafic":0E-8,"SHAPE__Length":11531.145736869486}},{"geometry":{"type":"LineString","coordinates":[[-6.842666699891388,57.39466669948066],[-6.843436699820341,57.39459639989162],[-6.843412700429186,57.3947097998437],[-6.835999999435702,57.42966670048698],[-6.814333300434355,57.457333299675376]]},"id":29,"type":"Feature","properties":{"fid":29,"cattss":0E-8,"inform":"Off Neist Point in The Minches","orient":0E-8,"globalid":"{B89F3CF7-CB43-4BBD-B053-1B029CE53DFF}","feature_ty":"Traffic Separation Scheme Boundaries","cattrk":0E-8,"trafic":0E-8,"SHAPE__Length":13593.267539583365}},{"geometry":{"type":"LineString","coordinates":[[-6.962500000465627,57.40133330008016],[-6.953999999313454,57.44600000038472],[-6.92533329973318,57.482666700076415]]},"id":30,"type":"Feature","properties":{"fid":30,"cattss":0E-8,"inform":"Off Neist Point in The Minches","orient":0E-8,"globalid":"{72C5D5B3-4073-4D58-8802-1519B347525C}","feature_ty":"Traffic Separation Scheme Boundaries","cattrk":0E-8,"trafic":0E-8,"SHAPE__Length":17516.172319652076}},{"geometry":{"type":"LineString","coordinates":[[-5.807666699631215,51.66716670016424],[-5.729333299632186,51.83700000045624]]},"id":31,"type":"Feature","properties":{"fid":31,"cattss":0E-8,"inform":"Off Smalls","orient":0E-8,"globalid":"{D19E0A33-2D3F-4DCC-9CB5-3166D3932847}","feature_ty":"Traffic Separation Scheme Boundaries","cattrk":0E-8,"trafic":0E-8,"SHAPE__Length":31759.7872255003}},{"geometry":{"type":"LineString","coordinates":[[-6.032666700273656,51.66716670016424],[-5.937666699603158,51.87366670022641]]},"id":32,"type":"Feature","properties":{"fid":32,"cattss":0E-8,"inform":"Off Smalls","orient":0E-8,"globalid":"{A6FB10BE-10D7-4D55-8720-DBBBCF99155A}","feature_ty":"Traffic Separation Scheme Boundaries","cattrk":0E-8,"trafic":0E-8,"SHAPE__Length":38623.70554271012}},{"geometry":{"type":"LineString","coordinates":[[-6.233499599711867,55.44890260035141],[-6.025824200415162,55.424938999857886],[-5.852632099349915,55.28354200008911]]},"id":33,"type":"Feature","properties":{"fid":33,"cattss":0E-8,"inform":"In the North Channel","orient":0E-8,"globalid":"{966B5646-4B86-4CA6-BCFE-A83E636725CF}","feature_ty":"Traffic Separation Scheme Boundaries","cattrk":0E-8,"trafic":0E-8,"SHAPE__Length":57330.26700201026}},{"geometry":{"type":"LineString","coordinates":[[-6.268466900336964,55.3510957000918],[-6.129382800242097,55.33504820021316],[-5.995954500362571,55.22643440005189]]},"id":34,"type":"Feature","properties":{"fid":34,"cattss":0E-8,"inform":"In the North Channel","orient":0E-8,"globalid":"{D941A857-E4F4-4B39-B3EC-543E6849898A}","feature_ty":"Traffic Separation Scheme Boundaries","cattrk":0E-8,"trafic":0E-8,"SHAPE__Length":41707.0861098266}},{"geometry":{"type":"LineString","coordinates":[[-4.800098799340599,53.35081319989515],[-4.649396100465029,53.4751795003564],[-4.516181700234471,53.48573120039444]]},"id":35,"type":"Feature","properties":{"fid":35,"cattss":0E-8,"inform":"Off Skerries","orient":0E-8,"globalid":"{0C8CA09E-C1C4-4206-9D51-C349F370B98C}","feature_ty":"Traffic Separation Scheme Boundaries","cattrk":0E-8,"trafic":0E-8,"SHAPE__Length":43612.22801089324}},{"geometry":{"type":"LineString","coordinates":[[-4.935640600623357,53.40949870006791],[-4.742988300049807,53.568483599703725],[-4.539505999344145,53.584601100188216]]},"id":36,"type":"Feature","properties":{"fid":36,"cattss":0E-8,"inform":"Off Skerries","orient":0E-8,"globalid":"{402972E0-3D40-4B41-9DCE-96B93A8677B3}","feature_ty":"Traffic Separation Scheme Boundaries","cattrk":0E-8,"trafic":0E-8,"SHAPE__Length":59523.03329734577}},{"geometry":{"type":"LineString","coordinates":[[2.9079999997588923,53.335833299404484],[3.01000000011002,53.49000000032024],[3.0101274656589325,53.49014040068569]]},"id":37,"type":"Feature","properties":{"fid":37,"cattss":0E-8,"inform":"Off Botney Ground","orient":0E-8,"globalid":"{2C2391D7-EE1C-47AF-97A9-16623D3E1349}","feature_ty":"Traffic Separation Scheme Boundaries","cattrk":0E-8,"trafic":0E-8,"SHAPE__Length":30980.672842122567}},{"geometry":{"type":"LineString","coordinates":[[2.9627403229186293,53.64790671249432],[2.9386667004028943,53.610833299986744],[2.7813333001583214,53.36466670005509]]},"id":38,"type":"Feature","properties":{"fid":38,"cattss":0E-8,"inform":"Off Botney Ground","orient":0E-8,"globalid":"{DA4CED7B-E6DE-42BE-94E9-75A60D7D29F5}","feature_ty":"Traffic Separation Scheme Boundaries","cattrk":0E-8,"trafic":0E-8,"SHAPE__Length":56731.6173555777}},{"geometry":{"type":"LineString","coordinates":[[2.036166699872246,51.560999999435246],[2.4325000004075075,51.825499999394545]]},"id":39,"type":"Feature","properties":{"fid":39,"cattss":0E-8,"inform":"In the approaches to Hook of Holland and at North Hinder","orient":0E-8,"globalid":"{8F48056E-4B01-4655-BADD-2AD461141480}","feature_ty":"Traffic Separation Scheme Boundaries","cattrk":0E-8,"trafic":0E-8,"SHAPE__Length":64829.19613459126}}],"type":"FeatureCollection","properties":{"exceededTransferLimit":false}}