{"features":[{"geometry":{"type":"Point","coordinates":[-2.274140000066349,59.47505430025501]},"id":1,"type":"Feature","properties":{"fid":1,"inform":"In the Fair Isle Channel","orient":128,"globalid":"{842B1D6C-35A8-4DBA-80B3-26B2CAD0733C}","feature_ty":" "}},{"geometry":{"type":"Point","coordinates":[-2.112251700258482,59.459737299902585]},"id":2,"type":"Feature","properties":{"fid":2,"inform":"In the Fair Isle Channel","orient":128,"globalid":"{903F7440-704F-420D-8B6A-607E7362B84B}","feature_ty":" "}},{"geometry":{"type":"Point","coordinates":[-2.0543367003419455,59.38351299979481]},"id":3,"type":"Feature","properties":{"fid":3,"inform":"In the Fair Isle Channel","orient":128,"globalid":"{388A902B-26FD-4095-85B5-B2507E803E1D}","feature_ty":" "}},{"geometry":{"type":"Point","coordinates":[-1.8682791999670652,59.46066580034032]},"id":4,"type":"Feature","properties":{"fid":4,"inform":"In the Fair Isle Channel","orient":308,"globalid":"{CBDB7FA4-055C-40B1-AC33-4905FFEE30F5}","feature_ty":" "}},{"geometry":{"type":"Point","coordinates":[-1.8039799002757777,59.38444360040343]},"id":5,"type":"Feature","properties":{"fid":5,"inform":"In the Fair Isle Channel","orient":308,"globalid":"{C6C7DAD7-3C82-4A29-B978-5661962DD0F7}","feature_ty":" "}},{"geometry":{"type":"Point","coordinates":[-1.644827699940064,59.369085400127716]},"id":6,"type":"Feature","properties":{"fid":6,"inform":"In the Fair Isle Channel","orient":308,"globalid":"{EE417782-FC42-429A-9F06-C4AF261D0C9D}","feature_ty":" "}},{"geometry":{"type":"Point","coordinates":[-1.6954463001496691,59.73207700036749]},"id":7,"type":"Feature","properties":{"fid":7,"inform":"In the Fair Isle Channel","orient":290,"globalid":"{4309D9CA-35CA-41CA-AC21-2DBBE02DAD51}","feature_ty":" "}},{"geometry":{"type":"Point","coordinates":[-1.6110819994052206,59.668467499406674]},"id":8,"type":"Feature","properties":{"fid":8,"inform":"In the Fair Isle Channel","orient":290,"globalid":"{4EBBAE44-105F-4913-A8B2-E7AF041BD1AF}","feature_ty":" "}},{"geometry":{"type":"Point","coordinates":[-1.4633304000869836,59.69014519989541]},"id":9,"type":"Feature","properties":{"fid":9,"inform":"In the Fair Isle Channel","orient":290,"globalid":"{4E924072-5251-4850-A62F-BF4449B7247F}","feature_ty":" "}},{"geometry":{"type":"Point","coordinates":[-1.3739497998965036,59.62483889978121]},"id":10,"type":"Feature","properties":{"fid":10,"inform":"In the Fair Isle Channel","orient":290,"globalid":"{F60DC515-18D7-420D-A5D2-496D7FBD4FEC}","feature_ty":" "}},{"geometry":{"type":"Point","coordinates":[1.7978812997956366,51.81894379961738]},"id":11,"type":"Feature","properties":{"fid":11,"inform":"Sunk Outer precautionary area","orient":40,"globalid":"{A8963CE9-33BB-409A-B289-0B96DDECEA86}","feature_ty":" "}},{"geometry":{"type":"Point","coordinates":[1.8038275001894977,51.84515689966616]},"id":12,"type":"Feature","properties":{"fid":12,"inform":"Sunk Outer precautionary area","orient":336,"globalid":"{80C88AEA-69FA-4F9F-B0E1-F6375E57C443}","feature_ty":" "}},{"geometry":{"type":"Point","coordinates":[1.7684069006888883,51.859952299406665]},"id":13,"type":"Feature","properties":{"fid":13,"inform":"Sunk Outer precautionary area","orient":270,"globalid":"{23ECF826-F912-4263-BD5C-AACC4CC51B64}","feature_ty":" "}},{"geometry":{"type":"Point","coordinates":[1.7282488998918997,51.84188339995742]},"id":14,"type":"Feature","properties":{"fid":14,"inform":"Sunk Outer precautionary area","orient":194,"globalid":"{B1E47467-2DB0-4F51-83F7-0766D01956C8}","feature_ty":" "}},{"geometry":{"type":"Point","coordinates":[1.745637499913382,51.8138153997348]},"id":15,"type":"Feature","properties":{"fid":15,"inform":"Sunk Outer precautionary area","orient":121,"globalid":"{0606B2C5-C169-4971-871D-ED473F0D43CC}","feature_ty":" "}},{"geometry":{"type":"Point","coordinates":[2.029807900573434,51.41436580009755]},"id":16,"type":"Feature","properties":{"fid":16,"inform":"In the Strait of Dover and Adjacent Waters","orient":270,"globalid":"{102DF68C-8C67-4667-BBD7-B9E701DA844D}","feature_ty":" "}},{"geometry":{"type":"Point","coordinates":[2.0402858994547644,51.41661220006537]},"id":17,"type":"Feature","properties":{"fid":17,"inform":"In the Strait of Dover and Adjacent Waters","orient":312,"globalid":"{87802B8F-9590-4FC0-9EEA-E9F79D8A889F}","feature_ty":" "}},{"geometry":{"type":"Point","coordinates":[1.9902795999259872,51.387278399832496]},"id":18,"type":"Feature","properties":{"fid":18,"inform":"In the Strait of Dover and Adjacent Waters","orient":85,"globalid":"{34E9E2D6-9E88-4A11-9EA5-96E40AD35312}","feature_ty":" "}},{"geometry":{"type":"Point","coordinates":[1.9814365995404788,51.38843110053677]},"id":19,"type":"Feature","properties":{"fid":19,"inform":"In the Strait of Dover and Adjacent Waters","orient":132,"globalid":"{0DF36E30-0251-4FFD-A0E6-CEB8F0ACC93B}","feature_ty":" "}},{"geometry":{"type":"Point","coordinates":[2.0130810004885658,51.424075799678675]},"id":20,"type":"Feature","properties":{"fid":20,"inform":"In the Strait of Dover and Adjacent Waters","orient":270,"globalid":"{6958E256-541D-48ED-945E-80402B7FFE6E}","feature_ty":" "}},{"geometry":{"type":"Point","coordinates":[2.0163313001209207,51.42727200037331]},"id":21,"type":"Feature","properties":{"fid":21,"inform":"In the Strait of Dover and Adjacent Waters","orient":312,"globalid":"{694A7A7A-52D3-40A3-B40D-198B7E53B999}","feature_ty":" "}}],"type":"FeatureCollection","properties":{"exceededTransferLimit":false}}